[{"OBJECT_NAME":"TEN-KOH","OBJECT_ID":"2018-084G","EPOCH":"2026-03-09T23:23:52.653408","MEAN_MOTION":15.02465351,"ECCENTRICITY":0.0011972,"INCLINATION":98.0798,"RA_OF_ASC_NODE":257.1735,"ARG_OF_PERICENTER":91.8355,"MEAN_ANOMALY":268.424,"EPHEMERIS_TYPE":0,"CLASSIFICATION_TYPE":"U","NORAD_CAT_ID":43677,"ELEMENT_SET_NO":999,"REV_AT_EPOCH":40126,"BSTAR":0.00025918134,"MEAN_MOTION_DOT":3.377e-5,"MEAN_MOTION_DDOT":0},{"OBJECT_NAME":"STARLINK-34780","OBJECT_ID":"2025-165U","EPOCH":"2026-03-09T17:21:31.633920","MEAN_MOTION":15.0564675,"ECCENTRICITY":6.619e-5,"INCLINATION":97.6019,"RA_OF_ASC_NODE":147.234,"ARG_OF_PERICENTER":113.2341,"MEAN_ANOMALY":246.8956,"EPHEMERIS_TYPE":0,"CLASSIFICATION_TYPE":"U","NORAD_CAT_ID":65074,"ELEMENT_SET_NO":999,"REV_AT_EPOCH":3479,"BSTAR":0.00042063792,"MEAN_MOTION_DOT":6.013e-5,"MEAN_MOTION_DDOT":0}]
